BEIDOU-2 IGSO-1 (C06)   
1 36828U 10036A   24107.09773064 -.00000114  00000+0  00000+0 0  9992
2 36828  54.2443 170.1322 0040088 199.8970 333.3797  1.00245293 50264
BEIDOU-2 G4 (C04)       
1 37210U 10057A   24120.60902587 -.00000105  00000+0  00000+0 0  9997
2 37210   1.7293  68.0370 0003139 199.2860 330.0399  1.00272353 49487
BEIDOU-2 IGSO-2 (C07)   
1 37256U 10068A   24120.36521515 -.00000191  00000+0  00000+0 0  9995
2 37256  48.9719 281.4121 0033301 209.0208 326.6969  1.00265449 48984
BEIDOU-2 IGSO-3 (C08)   
1 37384U 11013A   24120.46015008 -.00000187  00000+0  00000+0 0  9999
2 37384  61.2850  47.5826 0025880 179.3086 265.3866  1.00270671 47852
BEIDOU-2 IGSO-4 (C09)   
1 37763U 11038A   24120.12410567 -.00000002  00000+0  00000+0 0  9995
2 37763  54.5514 172.6100 0123965 228.4312 317.3150  1.00269320 46831
BEIDOU-2 IGSO-5 (C10)   
1 37948U 11073A   24119.91924434 -.00000136  00000+0  00000+0 0  9995
2 37948  49.1040 281.1009 0095533 219.1386 142.2728  1.00262388 45327
BEIDOU-2 G5 (C05)       
1 38091U 12008A   24120.49833620  .00000065  00000+0  00000+0 0  9995
2 38091   1.9578  70.4174 0008275 268.7493 116.9072  1.00268121 44563
BEIDOU-2 M3 (C11)       
1 38250U 12018A   24120.06988071 -.00000048  00000+0  00000+0 0  9999
2 38250  56.3701 330.9748 0020717 266.3039  93.4922  1.86231254 81439
BEIDOU-2 M4 (C12)       
1 38251U 12018B   24120.00028874 -.00000048  00000+0  00000+0 0  9990
2 38251  56.2779 330.2523 0011676 271.5155  88.3831  1.86231999 81437
BEIDOU-2 M6 (C14)       
1 38775U 12050B   24120.24664456  .00000037  00000+0  00000+0 0  9992
2 38775  55.8766  88.7978 0014782 332.5052  27.3931  1.86231062 78805
BEIDOU-2 G6 (C02)       
1 38953U 12059A   24120.57490694 -.00000169  00000+0  00000+0 0  9993
2 38953   2.4357  80.7886 0010917 310.6216 117.6596  1.00271906 42103
BEIDOU-3S IGSO-1S (C31) 
1 40549U 15019A   24118.45883024 -.00000154  00000+0  00000+0 0  9997
2 40549  50.6682 304.7856 0036535 191.4684 338.7884  1.00260305 33249
BEIDOU-3S M2S (C58)     
1 40748U 15037A   24120.20095946 -.00000047  00000+0  00000+0 0  9993
2 40748  55.5112 328.6970 0007823 258.8732 101.0687  1.86233171 59610
BEIDOU-3S M1S (C57)     
1 40749U 15037B   24119.93434500 -.00000048  00000+0  00000+0 0  9996
2 40749  55.5143 328.6930 0005118   0.8046 359.2264  1.86232942 59612
BEIDOU-3S IGSO-2S (C56) 
1 40938U 15053A   24120.36286556 -.00000133  00000+0  00000+0 0  9994
2 40938  50.4374 267.9726 0050607 188.3098 348.7447  1.00273501 31542
BEIDOU-2 IGSO-6 (C13)   
1 41434U 16021A   24120.58978074 -.00000162  00000+0  00000+0 0  9991
2 41434  59.1093  45.8412 0048608 224.6033 255.8403  1.00280028 29677
BEIDOU-2 G7 (C03)       
1 41586U 16037A   24120.58021531 -.00000347  00000+0  00000+0 0  9998
2 41586   1.7901  68.9945 0008943 325.1305 143.2703  1.00276586 28980
BEIDOU-3 M1 (C19)       
1 43001U 17069A   24119.47577749  .00000033  00000+0  00000+0 0  9992
2 43001  56.0264  88.9140 0012381 302.7337  57.1214  1.86231333 44089
BEIDOU-3 M2 (C20)       
1 43002U 17069B   24119.41290700  .00000033  00000+0  00000+0 0  9996
2 43002  56.0258  88.9516 0010177 322.2313  37.6715  1.86230974 44070
BEIDOU-3 M7 (C27)       
1 43107U 18003A   24120.23642881 -.00000049  00000+0  00000+0 0  9992
2 43107  54.9689 329.3082 0005165  65.7322 294.3522  1.86232405 42843
BEIDOU-3 M8 (C28)       
1 43108U 18003B   24120.17645561 -.00000049  00000+0  00000+0 0  9994
2 43108  54.9619 329.2960 0002441 273.9476  86.0548  1.86230896 42855
BEIDOU-3 M4 (C22)       
1 43207U 18018A   24119.54384339  .00000034  00000+0  00000+0 0  9995
2 43207  55.9852  89.0027 0007291 340.6028  19.3440  1.86231259 42228
BEIDOU-3 M3 (C21)       
1 43208U 18018B   24120.14736449  .00000037  00000+0  00000+0 0  9990
2 43208  55.9852  88.9869 0010139 312.3584  47.5321  1.86231214 42232
BEIDOU-3 M9 (C29)       
1 43245U 18029A   24119.29518841 -.00000048  00000+0  00000+0 0  9994
2 43245  54.8550 327.0534 0000803  39.1147 320.9192  1.86232562 41373
BEIDOU-3 M10 (C30)      
1 43246U 18029B   24118.15104447 -.00000052  00000+0  00000+0 0  9997
2 43246  54.8527 327.1204 0004640  17.6716 342.3743  1.86232864 41341
BEIDOU-2 IGSO-7 (C16)   
1 43539U 18057A   24120.56004234 -.00000094  00000+0  00000+0 0  9990
2 43539  55.1348 169.7930 0074298 232.8912 129.8619  1.00267678 21336
BEIDOU-3 M5 (C23)       
1 43581U 18062A   24120.52112364  .00000018  00000+0  00000+0 0  9998
2 43581  54.1371 208.7924 0003490 275.2470  84.7644  1.86228599 39138
BEIDOU-3 M6 (C24)       
1 43582U 18062B   24120.38720622  .00000020  00000+0  00000+0 0  9998
2 43582  54.1368 208.7863 0004382  20.4282 339.6409  1.86229359 39135
BEIDOU-3 M12 (C26)      
1 43602U 18067A   24119.78415342  .00000025  00000+0  00000+0 0  9993
2 43602  54.2268 207.4836 0006918  24.0719 336.0156  1.86231677 38603
BEIDOU-3 M11 (C25)      
1 43603U 18067B   24119.91806592  .00000024  00000+0  00000+0 0  9999
2 43603  54.2240 207.4443 0003713  12.7799 347.2844  1.86231579 38632
BEIDOU-3 M13 (C32)      
1 43622U 18072A   24120.41551243  .00000038  00000+0  00000+0 0  9998
2 43622  55.9568  88.5058 0008909 301.3623  58.5274  1.86231391 38157
BEIDOU-3 M14 (C33)      
1 43623U 18072B   24120.28096796  .00000037  00000+0  00000+0 0  9990
2 43623  55.9586  88.5033 0006701 321.6778  38.2510  1.86231370 38149
BEIDOU-3 M16 (C35)      
1 43647U 18078A   24119.90706613 -.00000047  00000+0  00000+0 0  9997
2 43647  54.7506 327.1346 0007975  21.1972 338.8636  1.86232246 37640
BEIDOU-3 M15 (C34)      
1 43648U 18078B   24120.03624619 -.00000047  00000+0  00000+0 0  9999
2 43648  54.7465 327.1332 0005092  33.0175 327.0421  1.86232175 37660
BEIDOU-3 G1 (C59)       
1 43683U 18085A   24120.58604583 -.00000271  00000+0  00000+0 0  9993
2 43683   2.0719 111.4928 0004372 345.2791 112.2550  1.00267781 20255
BEIDOU-3 M17 (C36)      
1 43706U 18093A   24120.18585215  .00000021  00000+0  00000+0 0  9996
2 43706  54.2201 208.7386 0008568 280.3754  79.5803  1.86228272 37039
BEIDOU-3 M18 (C37)      
1 43707U 18093B   24120.05157921  .00000023  00000+0  00000+0 0  9994
2 43707  54.2207 208.7349 0006739 311.0922  48.9023  1.86229709 37021
BEIDOU-3 IGSO-1 (C38)   
1 44204U 19023A   24120.55872892 -.00000218  00000+0  00000+0 0  9994
2 44204  57.5734  45.7343 0019234 213.5802 278.5450  1.00263671 18537
BEIDOU-2 G8 (C01)       
1 44231U 19027A   24120.57495525 -.00000241  00000+0  00000+0 0  9990
2 44231   1.8284  73.5585 0002263 165.0884 330.8979  1.00270135 18273
BEIDOU-3 IGSO-2 (C39)   
1 44337U 19035A   24119.76242251 -.00000088  00000+0  00000+0 0  9990
2 44337  55.1695 165.7016 0033057 208.2194 235.8261  1.00256451 17856
BEIDOU-3 M24 (C46)      
1 44542U 19061A   24119.58455353  .00000026  00000+0  00000+0 0  9997
2 44542  54.4477 209.0353 0007237 354.0265   6.0179  1.86231113 31270
BEIDOU-3 M23 (C45)      
1 44543U 19061B   24120.31495602  .00000020  00000+0  00000+0 0  9996
2 44543  54.4460 208.9798 0004341 337.2194  64.7290  1.86231511 31290
BEIDOU-3 IGSO-3 (C40)   
1 44709U 19073A   24119.86881258 -.00000172  00000+0  00000+0 0  9996
2 44709  56.1348 289.2424 0037332 179.7194 180.2174  1.00264558 16641
BEIDOU-3 M22 (C44)      
1 44793U 19078A   24119.96730140 -.00000047  00000+0  00000+0 0  9999
2 44793  54.5984 327.0706 0007015  28.6743 331.3919  1.86232057 30132
BEIDOU-3 M21 (C43)      
1 44794U 19078B   24120.09721650 -.00000047  00000+0  00000+0 0  9992
2 44794  54.5720 327.0433 0004841  26.1390 333.9129  1.86232568 30142
BEIDOU-3 M19 (C41)      
1 44864U 19090A   24120.48569056  .00000038  00000+0  00000+0 0  9996
2 44864  55.8909  88.6778 0019627 283.2409 170.2960  1.86231567 29736
BEIDOU-3 M20 (C42)      
1 44865U 19090B   24120.46933671  .00000038  00000+0  00000+0 0  9993
2 44865  55.8926  88.7116 0017564 295.3450 236.9744  1.86231503 29719
BEIDOU-3 G2 (C60)       
1 45344U 20017A   24120.53521687 -.00000134  00000+0  00000+0 0  9993
2 45344   2.2593  27.6468 0001073  13.8414  89.1560  1.00269620 15458
BEIDOU-3 G3 (C61)       
1 45807U 20040A   24120.62484435 -.00000348  00000+0  00000+0 0  9999
2 45807   0.7022  35.3321 0005234 305.1479 213.1026  1.00269175 14266
BEIDOU-3 G4             
1 56564U 23066A   24120.58728083 -.00000107  00000+0  00000+0 0  9990
2 56564   2.2456 288.2205 0004604 189.0057 112.3054  1.00271884  3581
BEIDOU-3 M25            
1 58654U 23207A   24120.17984791  .00000035  00000+0  00000+0 0  9993
2 58654  55.0732  88.7375 0004771 295.0309  64.8961  1.86232209  2332
BEIDOU-3 M26            
1 58655U 23207B   24119.97871079  .00000034  00000+0  00000+0 0  9993
2 58655  55.0750  88.7298 0005301 279.1858  80.7303  1.86231773  2319
